2022-145B               
1 54224U 22145B   22312.31109928 -.00000791  00000+0  00000+0 0  9990
2 54224  63.8649  92.7397 6973522 270.0846  42.3939  2.02026865   127
2022-146A               
1 54225U 22146A   22312.19237463 -.00000006  00000+0  32140-3 0  9997
2 54225  27.5920 318.8410 8079672 181.4332 172.0011  1.30883793    50
2022-146B               
1 54226U 22146B   22308.29845472 -.00285371  00000+0 -61086+0 0  9997
2 54226  27.5756 319.5552 8102342 180.5514 137.4215  1.31082780    00
2022-147A               
1 54227U 22147A   22312.50946669  .00005216  00000+0  50827-3 0  9999
2 54227  97.6528 315.1329 0011525 293.2329  66.7676 14.92850489   566
2022-147B               
1 54228U 22147B   22312.24170014  .00014023  00000+0  13611-2 0  9999
2 54228  97.6528 314.8716 0012105 299.2676  60.5798 14.92692372   527
ELECTRON R/B            
1 54229U 22147C   22312.01972593  .01036923  22809-5  11075-2 0  9990
2 54229  97.5531 314.7334 0267257 218.4212 139.7765 15.66919329   513
2022-148A               
1 54230U 22148A   22309.66314447 -.00000524  00000+0  00000+0 0  9992
2 54230  28.3719 219.4031 7294106 179.4183 126.5572  2.28036035    05
2022-148B               
1 54231U 22148B   22311.18307372 -.00001433  15634-5  00000+0 0  9997
2 54231  28.4399 218.7736 7237566 179.5998 355.6722  2.38214340    41
CYGNUS NG-18            
1 54232U 22149A   22312.54480843 -.00003462  10947-4  00000+0 0  9990
2 54232  51.6802 341.5094 0127360 124.0504 230.0225 15.81755449   183
ANTARES R/B             
1 54233U 22149B   22312.59190298  .05533333  11760-4  84893-3 0  9997
2 54233  51.6516 341.0653 0069614 151.2758 209.2178 16.25972235   180
